[{"OBJECT_NAME":"ONEWEB-0356","OBJECT_ID":"2021-090E","EPOCH":"2026-03-09T16:21:42.962400","MEAN_MOTION":13.20770247,"ECCENTRICITY":7.619e-5,"INCLINATION":87.9168,"RA_OF_ASC_NODE":294.3024,"ARG_OF_PERICENTER":76.5341,"MEAN_ANOMALY":283.5878,"EPHEMERIS_TYPE":0,"CLASSIFICATION_TYPE":"U","NORAD_CAT_ID":49283,"ELEMENT_SET_NO":999,"REV_AT_EPOCH":21669,"BSTAR":-0.00012805887,"MEAN_MOTION_DOT":-3.9e-7,"MEAN_MOTION_DDOT":0},{"OBJECT_NAME":"DELTA 1 DEB","OBJECT_ID":"1975-052HL","EPOCH":"2026-03-09T00:55:20.681184","MEAN_MOTION":12.83892144,"ECCENTRICITY":0.03239349,"INCLINATION":99.5801,"RA_OF_ASC_NODE":89.7704,"ARG_OF_PERICENTER":3.277,"MEAN_ANOMALY":22.1579,"EPHEMERIS_TYPE":0,"CLASSIFICATION_TYPE":"U","NORAD_CAT_ID":21566,"ELEMENT_SET_NO":999,"REV_AT_EPOCH":63081,"BSTAR":0.00056338036,"MEAN_MOTION_DOT":1.34e-6,"MEAN_MOTION_DDOT":0}]
